{
  "norad_id": 62427,
  "name": "STARLINK-32659",
  "history": [
    {
      "epoch": "2026-03-28T17:45:49.630464",
      "apogee_km": 483.6367790514423,
      "perigee_km": 482.06506393838663,
      "latitude_deg": -10.932588304701964,
      "longitude_deg": 133.75514496001415,
      "semi_major_axis_km": 6860.987921494914,
      "eccentricity": 0.00011454,
      "inclination_deg": 42.9999,
      "raan_deg": 206.7913,
      "arg_perigee_deg": 268.2151,
      "mean_anomaly_deg": 91.8569,
      "mean_motion_rev_day": 15.27646185
    }
  ]
}